[{"OBJECT_NAME":"ONEWEB-0647","OBJECT_ID":"2023-043AK","EPOCH":"2025-11-22T09:37:53.597856","MEAN_MOTION":13.1554731,"ECCENTRICITY":0.0001968,"INCLINATION":87.8969,"RA_OF_ASC_NODE":300.4969,"ARG_OF_PERICENTER":89.3859,"MEAN_ANOMALY":270.7496,"EPHEMERIS_TYPE":0,"CLASSIFICATION_TYPE":"U","NORAD_CAT_ID":56079,"ELEMENT_SET_NO":999,"REV_AT_EPOCH":12923,"BSTAR":0.00016692,"MEAN_MOTION_DOT":7.6e-7,"MEAN_MOTION_DDOT":0},{"OBJECT_NAME":"ONEWEB-0651","OBJECT_ID":"2023-043AL","EPOCH":"2025-11-22T09:31:03.385344","MEAN_MOTION":13.15548629,"ECCENTRICITY":0.0001653,"INCLINATION":87.8971,"RA_OF_ASC_NODE":300.4909,"ARG_OF_PERICENTER":90.4291,"MEAN_ANOMALY":269.7028,"EPHEMERIS_TYPE":0,"CLASSIFICATION_TYPE":"U","NORAD_CAT_ID":56080,"ELEMENT_SET_NO":999,"REV_AT_EPOCH":13043,"BSTAR":0.00036483,"MEAN_MOTION_DOT":1.5e-6,"MEAN_MOTION_DDOT":0},{"OBJECT_NAME":"ONEWEB-0718","OBJECT_ID":"2023-043AM","EPOCH":"2025-11-22T09:24:11.648736","MEAN_MOTION":13.1554645,"ECCENTRICITY":0.0001866,"INCLINATION":87.8972,"RA_OF_ASC_NODE":300.4725,"ARG_OF_PERICENTER":67.3203,"MEAN_ANOMALY":292.8124,"EPHEMERIS_TYPE":0,"CLASSIFICATION_TYPE":"U","NORAD_CAT_ID":56081,"ELEMENT_SET_NO":999,"REV_AT_EPOCH":12924,"BSTAR":0.00045181,"MEAN_MOTION_DOT":1.83e-6,"MEAN_MOTION_DDOT":0},{"OBJECT_NAME":"ONEWEB-0561","OBJECT_ID":"2023-068A","EPOCH":"2025-11-22T10:58:48.067392","MEAN_MOTION":13.20773193,"ECCENTRICITY":0.0002018,"INCLINATION":87.9178,"RA_OF_ASC_NODE":315.6804,"ARG_OF_PERICENTER":102.5011,"MEAN_ANOMALY":257.6349,"EPHEMERIS_TYPE":0,"CLASSIFICATION_TYPE":"U","NORAD_CAT_ID":56710,"ELEMENT_SET_NO":999,"REV_AT_EPOCH":12221,"BSTAR":9.3092e-5,"MEAN_MOTION_DOT":5.1e-7,"MEAN_MOTION_DDOT":0},{"OBJECT_NAME":"ONEWEB-0668","OBJECT_ID":"2023-068B","EPOCH":"2025-11-22T08:05:32.162784","MEAN_MOTION":13.16594666,"ECCENTRICITY":0.0001524,"INCLINATION":87.9041,"RA_OF_ASC_NODE":269.9444,"ARG_OF_PERICENTER":59.7089,"MEAN_ANOMALY":300.4192,"EPHEMERIS_TYPE":0,"CLASSIFICATION_TYPE":"U","NORAD_CAT_ID":56711,"ELEMENT_SET_NO":999,"REV_AT_EPOCH":12456,"BSTAR":-0.0021044,"MEAN_MOTION_DOT":-7.92e-6,"MEAN_MOTION_DDOT":0},{"OBJECT_NAME":"ONEWEB-0676","OBJECT_ID":"2023-068C","EPOCH":"2025-11-22T08:16:58.869120","MEAN_MOTION":13.1659335,"ECCENTRICITY":0.0001894,"INCLINATION":87.9025,"RA_OF_ASC_NODE":269.968,"ARG_OF_PERICENTER":82.8163,"MEAN_ANOMALY":277.3183,"EPHEMERIS_TYPE":0,"CLASSIFICATION_TYPE":"U","NORAD_CAT_ID":56712,"ELEMENT_SET_NO":999,"REV_AT_EPOCH":12448,"BSTAR":0.00019416,"MEAN_MOTION_DOT":8.7e-7,"MEAN_MOTION_DDOT":0},{"OBJECT_NAME":"ONEWEB-0677","OBJECT_ID":"2023-068D","EPOCH":"2025-11-22T10:42:51.837120","MEAN_MOTION":13.20770169,"ECCENTRICITY":0.0001755,"INCLINATION":87.9188,"RA_OF_ASC_NODE":315.6631,"ARG_OF_PERICENTER":91.1737,"MEAN_ANOMALY":268.9597,"EPHEMERIS_TYPE":0,"CLASSIFICATION_TYPE":"U","NORAD_CAT_ID":56713,"ELEMENT_SET_NO":999,"REV_AT_EPOCH":12251,"BSTAR":-3.4438e-5,"MEAN_MOTION_DOT":-1.0e-8,"MEAN_MOTION_DDOT":0},{"OBJECT_NAME":"ONEWEB-0678","OBJECT_ID":"2023-068E","EPOCH":"2025-11-22T08:38:33.863424","MEAN_MOTION":13.15547339,"ECCENTRICITY":0.000219,"INCLINATION":87.8975,"RA_OF_ASC_NODE":300.4535,"ARG_OF_PERICENTER":88.6984,"MEAN_ANOMALY":271.4397,"EPHEMERIS_TYPE":0,"CLASSIFICATION_TYPE":"U","NORAD_CAT_ID":56714,"ELEMENT_SET_NO":999,"REV_AT_EPOCH":12209,"BSTAR":0.00018524,"MEAN_MOTION_DOT":8.3e-7,"MEAN_MOTION_DDOT":0},{"OBJECT_NAME":"ONEWEB-0679","OBJECT_ID":"2023-068F","EPOCH":"2025-11-22T09:07:06.576672","MEAN_MOTION":13.16596391,"ECCENTRICITY":0.0001298,"INCLINATION":87.9021,"RA_OF_ASC_NODE":269.9456,"ARG_OF_PERICENTER":78.8961,"MEAN_ANOMALY":281.2315,"EPHEMERIS_TYPE":0,"CLASSIFICATION_TYPE":"U","NORAD_CAT_ID":56715,"ELEMENT_SET_NO":999,"REV_AT_EPOCH":12451,"BSTAR":0.00042323,"MEAN_MOTION_DOT":1.75e-6,"MEAN_MOTION_DDOT":0},{"OBJECT_NAME":"ONEWEB-0680","OBJECT_ID":"2023-068G","EPOCH":"2025-11-22T10:41:28.498272","MEAN_MOTION":13.21826735,"ECCENTRICITY":0.0001448,"INCLINATION":87.9199,"RA_OF_ASC_NODE":285.1974,"ARG_OF_PERICENTER":67.6637,"MEAN_ANOMALY":292.4651,"EPHEMERIS_TYPE":0,"CLASSIFICATION_TYPE":"U","NORAD_CAT_ID":56716,"ELEMENT_SET_NO":999,"REV_AT_EPOCH":12378,"BSTAR":0.00018906,"MEAN_MOTION_DOT":9.1e-7,"MEAN_MOTION_DDOT":0},{"OBJECT_NAME":"ONEWEB-0681","OBJECT_ID":"2023-068H","EPOCH":"2025-11-22T08:22:51.280032","MEAN_MOTION":13.21828412,"ECCENTRICITY":0.0001778,"INCLINATION":87.9195,"RA_OF_ASC_NODE":285.2331,"ARG_OF_PERICENTER":116.4118,"MEAN_ANOMALY":243.7199,"EPHEMERIS_TYPE":0,"CLASSIFICATION_TYPE":"U","NORAD_CAT_ID":56717,"ELEMENT_SET_NO":999,"REV_AT_EPOCH":12376,"BSTAR":9.4409e-5,"MEAN_MOTION_DOT":5.2e-7,"MEAN_MOTION_DDOT":0},{"OBJECT_NAME":"ONEWEB-0682","OBJECT_ID":"2023-068J","EPOCH":"2025-11-22T11:05:44.162016","MEAN_MOTION":13.15550867,"ECCENTRICITY":0.0001439,"INCLINATION":87.8965,"RA_OF_ASC_NODE":300.449,"ARG_OF_PERICENTER":75.8349,"MEAN_ANOMALY":284.2941,"EPHEMERIS_TYPE":0,"CLASSIFICATION_TYPE":"U","NORAD_CAT_ID":56718,"ELEMENT_SET_NO":999,"REV_AT_EPOCH":12227,"BSTAR":0.0007116,"MEAN_MOTION_DOT":2.81e-6,"MEAN_MOTION_DDOT":0},{"OBJECT_NAME":"ONEWEB-0683","OBJECT_ID":"2023-068K","EPOCH":"2025-11-22T07:57:30.182112","MEAN_MOTION":13.15548012,"ECCENTRICITY":0.0001704,"INCLINATION":87.8979,"RA_OF_ASC_NODE":300.4571,"ARG_OF_PERICENTER":77.8324,"MEAN_ANOMALY":282.2997,"EPHEMERIS_TYPE":0,"CLASSIFICATION_TYPE":"U","NORAD_CAT_ID":56719,"ELEMENT_SET_NO":999,"REV_AT_EPOCH":12222,"BSTAR":-0.00011021,"MEAN_MOTION_DOT":-2.9e-7,"MEAN_MOTION_DDOT":0},{"OBJECT_NAME":"ONEWEB-0684","OBJECT_ID":"2023-068L","EPOCH":"2025-11-22T08:08:54.711168","MEAN_MOTION":13.15549486,"ECCENTRICITY":0.0003277,"INCLINATION":87.8976,"RA_OF_ASC_NODE":300.4506,"ARG_OF_PERICENTER":79.406,"MEAN_ANOMALY":280.7439,"EPHEMERIS_TYPE":0,"CLASSIFICATION_TYPE":"U","NORAD_CAT_ID":56720,"ELEMENT_SET_NO":999,"REV_AT_EPOCH":12205,"BSTAR":-0.00051915,"MEAN_MOTION_DOT":-1.83e-6,"MEAN_MOTION_DDOT":0},{"OBJECT_NAME":"ONEWEB-0686","OBJECT_ID":"2023-068M","EPOCH":"2025-11-22T12:00:02.998944","MEAN_MOTION":13.15075024,"ECCENTRICITY":0.0002081,"INCLINATION":87.9022,"RA_OF_ASC_NODE":269.9554,"ARG_OF_PERICENTER":69.6059,"MEAN_ANOMALY":118.9953,"EPHEMERIS_TYPE":0,"CLASSIFICATION_TYPE":"U","NORAD_CAT_ID":56721,"ELEMENT_SET_NO":999,"REV_AT_EPOCH":521,"BSTAR":-0.12003,"MEAN_MOTION_DOT":-0.00044643,"MEAN_MOTION_DDOT":0},{"OBJECT_NAME":"ONEWEB-0694","OBJECT_ID":"2023-068N","EPOCH":"2025-11-22T08:19:15.443328","MEAN_MOTION":13.16593443,"ECCENTRICITY":0.0001602,"INCLINATION":87.9033,"RA_OF_ASC_NODE":269.927,"ARG_OF_PERICENTER":65.0908,"MEAN_ANOMALY":295.0389,"EPHEMERIS_TYPE":0,"CLASSIFICATION_TYPE":"U","NORAD_CAT_ID":56722,"ELEMENT_SET_NO":999,"REV_AT_EPOCH":12455,"BSTAR":0.0001005,"MEAN_MOTION_DOT":5.1e-7,"MEAN_MOTION_DDOT":0},{"OBJECT_NAME":"ONEWEB-0696","OBJECT_ID":"2023-068P","EPOCH":"2025-11-22T10:46:20.874144","MEAN_MOTION":13.15548434,"ECCENTRICITY":0.0002235,"INCLINATION":87.8965,"RA_OF_ASC_NODE":300.4834,"ARG_OF_PERICENTER":88.9726,"MEAN_ANOMALY":271.166,"EPHEMERIS_TYPE":0,"CLASSIFICATION_TYPE":"U","NORAD_CAT_ID":56723,"ELEMENT_SET_NO":999,"REV_AT_EPOCH":12218,"BSTAR":0.00019237,"MEAN_MOTION_DOT":8.5e-7,"MEAN_MOTION_DDOT":0}]
