ONEWEB-0647             
1 56079U 23043AK  25326.40131479  .00000076  00000+0  16692-3 0  9995
2 56079  87.8969 300.4969 0001968  89.3859 270.7496 13.15547310129235
ONEWEB-0651             
1 56080U 23043AL  25326.39656696  .00000150  00000+0  36483-3 0  9991
2 56080  87.8971 300.4909 0001653  90.4291 269.7028 13.15548629130435
ONEWEB-0718             
1 56081U 23043AM  25326.39180149  .00000183  00000+0  45181-3 0  9998
2 56081  87.8972 300.4725 0001866  67.3203 292.8124 13.15546450129246
ONEWEB-0561             
1 56710U 23068A   25326.45750078  .00000051  00000+0  93092-4 0  9994
2 56710  87.9178 315.6804 0002018 102.5011 257.6349 13.20773193122219
ONEWEB-0668             
1 56711U 23068B   25326.33717781 -.00000792  00000+0 -21044-2 0  9996
2 56711  87.9041 269.9444 0001524  59.7089 300.4192 13.16594666124563
ONEWEB-0676             
1 56712U 23068C   25326.34512580  .00000087  00000+0  19416-3 0  9994
2 56712  87.9025 269.9680 0001894  82.8163 277.3183 13.16593350124480
ONEWEB-0677             
1 56713U 23068D   25326.44643330 -.00000001  00000+0 -34438-4 0  9994
2 56713  87.9188 315.6631 0001755  91.1737 268.9597 13.20770169122519
ONEWEB-0678             
1 56714U 23068E   25326.36011416  .00000083  00000+0  18524-3 0  9995
2 56714  87.8975 300.4535 0002190  88.6984 271.4397 13.15547339122092
ONEWEB-0679             
1 56715U 23068F   25326.37993723  .00000175  00000+0  42323-3 0  9993
2 56715  87.9021 269.9456 0001298  78.8961 281.2315 13.16596391124512
ONEWEB-0680             
1 56716U 23068G   25326.44546873  .00000091  00000+0  18906-3 0  9999
2 56716  87.9199 285.1974 0001448  67.6637 292.4651 13.21826735123786
ONEWEB-0681             
1 56717U 23068H   25326.34920463  .00000052  00000+0  94409-4 0  9990
2 56717  87.9195 285.2331 0001778 116.4118 243.7199 13.21828412123762
ONEWEB-0682             
1 56718U 23068J   25326.46231669  .00000281  00000+0  71160-3 0  9999
2 56718  87.8965 300.4490 0001439  75.8349 284.2941 13.15550867122270
ONEWEB-0683             
1 56719U 23068K   25326.33159933 -.00000029  00000+0 -11021-3 0  9991
2 56719  87.8979 300.4571 0001704  77.8324 282.2997 13.15548012122229
ONEWEB-0684             
1 56720U 23068L   25326.33952212 -.00000183  00000+0 -51915-3 0  9991
2 56720  87.8976 300.4506 0003277  79.4060 280.7439 13.15549486122059
ONEWEB-0686             
1 56721U 23068M   25326.50003471 -.00044643  00000+0 -12003+0 0  9995
2 56721  87.9022 269.9554 0002081  69.6059 118.9953 13.15075024  5219
ONEWEB-0694             
1 56722U 23068N   25326.34670652  .00000051  00000+0  10050-3 0  9996
2 56722  87.9033 269.9270 0001602  65.0908 295.0389 13.16593443124558
ONEWEB-0696             
1 56723U 23068P   25326.44885271  .00000085  00000+0  19237-3 0  9996
2 56723  87.8965 300.4834 0002235  88.9726 271.1660 13.15548434122187
